#dP2019 12  6  0  0  0.00000000      96 __u+U ITR00 FIT  IAC
## 2082 432000.00000000   900.00000000 58823 0.0000000000000
+  105   C06C07C08C09C10C11C12C13C14C16C19C20C21C22C23C24C25
+        C26C27C28C29C30C32C33C34C35C36C37E01E02E03E04E05E07
+        E08E09E11E12E13E14E15E18E19E21E24E25E26E27E30E31E33
+        E36G01G02G03G04G05G06G07G08G09G10G11G12G13G14G15G16
+        G17G18G19G20G21G22G23G24G25G26G27G28G29G30G31G32R01
+        R02R03R05R07R08R09R11R12R13R14R15R16R17R18R19R20R21
+        R22R23R26  0  0  0  0  0  0  0  0  0  0  0  0  0  0
++         8  9  9  8  8  8  8  8  8  8  8  8  8  8  7  7  7
++         8  8  7  8  8  8  8  8  8  8  8  4  5  5  5  5  5
++         5  5  4  4  4  4  5  5  5  4  4  5  4  5  5  4  4
++         5  4  4  4  4  4  3  3  3  3  4  4  4  4  4  4  3
++         3  4  4  4  3  4  3  4  4  4  3  4  4  3  4  4  6
++         6  6  6  5  5  6  5  6  6  5  5  6  5  5  6  6  5
++         5  5  8  0  0  0  0  0  0  0  0  0  0  0  0  0  0
%c M  cc GPS ccc cccc cccc cccc cccc ccccc ccccc ccccc ccccc
%c cc cc ccc ccc cccc cccc cccc cccc ccccc ccccc ccccc ccccc
%f  0.0000000  0.000000000  0.00000000000  0.000000000000000
%f  0.0000000  0.000000000  0.00000000000  0.000000000000000
%i    0    0    0    0      0      0      0      0         0
%i    0    0    0    0      0      0      0      0         0
/* INFORMATION & ANALYSIS CENTER (IAC)      ULTRA-RAPID DATA
/* S/V CLOCKS ARE ALIGNED TO GNSS TIME                      
/* G:C1WC2W R:C1PC2P E:C1XC5X C:C2IC6I J:C1CC2S             
/* PCV:IGS14_2080 OL/AL:FES2004  NONE     YN ORB:CoN CLK:CoN
*  2019 12 06 20 30  0.00000000
PC06 -24277.435691  25482.332544 -23169.510322    294.240821
PC07 -14574.595185  37414.942621 -11873.946420    188.546071
PC08  -6848.108936  22124.017439  35375.301502    -49.270197
PC09  -7610.990825  26011.976690 -32150.576869    168.674034
PC10  -3280.389211  41746.449606   2708.992699   -435.962870
PC11 -27859.483184    -62.707097    893.131746    -44.903174
PC12 -19856.919523 -10932.666316 -16211.604795    303.025140
PC13   7762.729734  30534.203994  28235.140288    142.899249
PC14 -19049.525646   5399.732408  19665.324012    353.360209
PC16 -21175.157564  26078.815809 -25564.857024   -945.824393
PC19  19417.694108 -14689.175020 -13629.405268    263.879112
PC20  15903.570068   3929.002191 -22586.500339   -382.726095
PC21  -2758.500948 -20830.292065  18380.347396    127.762838
PC22  11776.228138 -25083.374062   3411.340481   -474.837781
PC23  -2608.440684  21319.798732 -17810.980266   -871.017228
PC24 -19328.739543 -14468.282359 -13970.705661   -882.224076
PC25 -15282.815159   5603.479270 -22666.379332   -438.361581
PC26 -12746.815773 -24708.997322   2174.579772    486.936490
PC27  10734.668538  14841.204164  21039.135244    237.915429
PC28 -10635.605343  14503.940536  21340.849496    228.969215
PC29  25497.199627  -6674.922310  -9174.651077    156.085842
PC30  25903.324823   5696.978859   8656.717437    235.937882
PC32   2916.124627  20805.902959 -18360.161424   -858.288227
PC33 -19372.409462  14682.245550  13693.108789   -642.107144
PC34 -26060.366978  -5575.479801  -8309.578218 999999.999999
PC35  10247.686004 -14878.410243 -21255.593767   -630.286354
PC36  15517.867897  -5035.577971  22667.107555   -882.382400
PC37  11845.793685  25130.014201  -2701.116776   -859.413206
PE01  12495.874713  21844.974385  15592.326025   -746.924716
PE02 -12522.268672 -21776.314645 -15641.133231     96.908614
PE03 -13814.271928 -10913.213357  23786.175539   -240.973105
PE04  25361.110332  -5765.285935 -14137.348388   -420.034498
PE05   5942.964585 -21367.837913  19597.535143   -425.057871
PE07 -22103.379960  19273.034364  -3986.764730   -309.133384
PE08 -25302.870555   6168.040299  14050.291622   6252.929299
PE09  21958.568474 -19442.602548   4055.568153   6229.736768
PE11  15946.230809  -9592.203728 -23017.135496    256.717382
PE12  27512.758176   5273.899744  -9540.223789   6064.388299
PE13 -16060.399800   9467.509954  22999.974290    396.115719
PE14 -27314.561780   3221.678713  -4600.380423   -820.924097
PE15 -27477.987199  -4964.798456   9826.112223    885.295771
PE18  23519.746376 -14728.913041 -10660.055014   -916.510336
PE19  11850.121690  12368.090280 -24145.020586     -2.559396
PE21   1290.803384  29471.374759  -2456.271230   -569.894991
PE24  10929.623475 -19781.845574  19098.163268   5729.662683
PE25  -1214.691819 -29463.082997   2569.574336   -497.733192
PE26   4850.098804  18601.068334  22520.840180   3793.896225
PE27 -10791.113036  19832.441999 -19137.253890    330.548942
PE30 -16544.454297  -1559.618057 -24496.587446   4326.582484
PE31  16506.691744   1423.512151  24540.950027   -470.808064
PE33  22789.789874  16526.578489   9161.257452   -471.588903
PE36  -4793.271143 -18367.390685 -22701.025652    627.638505
PG01 -21861.500135 -13778.976161   6621.909443   -221.159068
PG02  10307.043063  20561.565709  14008.305357   -361.195129
PG03 -14154.923830  -5773.033618  21665.876400    -48.397471
PG04 -24385.574463   -456.799757  10453.133957    -17.363711
PG05   4327.927484  23398.307620 -11729.716922     -4.356551
PG06  -2623.471030  16398.354621  20770.578616   -145.800961
PG07 -18938.521082    436.127817 -18522.711140   -164.334623
PG08 -16106.339719  -8489.438020 -19380.312704    -15.837633
PG09 -25557.193656   6557.867553   3024.854184   -101.631445
PG10  11484.651059 -21628.132887  -9926.919038   -162.340754
PG11 -24957.894280  -8468.128259  -1853.998289   -427.001330
PG12  11288.720088  11568.225050  20894.691595    175.970971
PG13   7086.112315  13827.209215 -21672.904183    -28.318881
PG14   7212.496867 -16191.716375  20048.940867    -46.357752
PG15  17819.987584   7417.162876 -18697.605975   -267.538993
PG16   -503.060010 -23988.999585 -11076.092761   -100.369677
PG17 -17661.436249  14388.021615  14020.177268    176.069956
PG18 -19708.641105 -17799.434908  -2187.306432    104.977180
PG19 -11492.297767  15055.166086  18334.201148   -229.898552
PG20  14397.110421 -13286.999847 -17943.627413    527.612648
PG21  16432.155830  -4748.181789 -19474.989429    -74.900939
PG22 -12579.673157 -13940.980414  19037.928923   -776.116093
PG23 -23990.490518   -849.496064  12123.097012   -151.172326
PG24  22386.108556  14021.352705   4066.395944     -5.846372
PG25  15564.283724  -4475.435397  20780.864877    -17.414156
PG26   4040.349209 -26124.894516   -814.565973    100.016505
PG27  -4033.942179 -14332.918849 -22100.962653   -142.357133
PG28 -12388.681767  21899.971066  -8095.673623    751.859118
PG29  25978.805536  -4017.261409   3853.256925     25.346763
PG30 -10877.428921  11254.428016 -21428.156306   -100.017119
PG31   1184.488966 -17747.556343  19552.507602     -8.049023
PG32  16645.979029 -15653.629202  13486.709760    147.530312
PR01  14488.140329  -1514.120070 -20949.419205     53.728025
PR02  18123.704389 -17227.631720  -4857.336522    401.189953
PR03   9616.962913 -20107.647785  12390.014922      6.039845
PR05 -15635.707928   3803.484420  19801.703563     40.741131
PR07  -9341.390950  20023.552246 -12757.507431    -30.382497
PR08   4130.658277  11496.705675 -22350.721219     13.976866
PR09  -6039.577677  13487.072219 -20757.715665    104.891327
PR11  11322.466256  21575.105246   7494.172860     17.550785
PR12  13045.415118   8315.660282  20319.324487     85.608083
PR13   7202.477286 -10740.520113  21973.216100    -31.907424
PR14  -2544.001105 -23041.248812  10670.612498     45.800296
PR15 -10896.359257 -22085.064161  -6614.578018    105.066028
PR16 -13259.686645  -7543.689866 -20424.082524     -0.295878
PR17   2265.643054 -10351.568658 -23188.967533    281.691599
PR18 -15483.183339 -10966.919539 -17056.038655     17.059654
PR19 -24592.903192  -6439.450087  -2030.003389    -67.603385
PR20 -19421.746920   3071.902582  16283.596355   -398.154715
PR21  -1292.507603  10466.995592  23231.752068    -89.934864
PR22  17753.542040  10497.198554  14939.123604     -4.398338
PR23  24961.990979   3178.666437  -4200.046378    271.494577
PR26 -21697.804657   1680.473838  13294.305102     13.891659
EOF
